#aV2012  6 12  0  0  0.00000000     288 DD+AD WGS84 FIT  NGA
## 1692 172800.00000000   300.00000000 56090 0.0000000000000
+   31     1  2  3  4  5  6  7  8  9 10 11 12 13 14 15 16 17
+         18 19 20 21 22 23 25 26 27 28 29 30 31 32  0  0  0
+          0  0  0  0  0  0  0  0  0  0  0  0  0  0  0  0  0
+          0  0  0  0  0  0  0  0  0  0  0  0  0  0  0  0  0
+          0  0  0  0  0  0  0  0  0  0  0  0  0  0  0  0  0
++         2  2  2  2  2  2  2  2  2  2  2  2  2  2  2  2  2
++         2  2  2  2  2  2  2  2  2  2  2  2  2  2  2  0  0
++         0  0  0  0  0  0  0  0  0  0  0  0  0  0  0  0  0
++         0  0  0  0  0  0  0  0  0  0  0  0  0  0  0  0  0
++         0  0  0  0  0  0  0  0  0  0  0  0  0  0  0  0  0
%c cc cc ccc ccc cccc cccc cccc cccc ccccc ccccc ccccc ccccc
%c cc cc ccc ccc cccc cccc cccc cccc ccccc ccccc ccccc ccccc
%f  0.0000000  0.000000000  0.00000000000  0.000000000000000
%f  0.0000000  0.000000000  0.00000000000  0.000000000000000
%i    0    0    0    0      0      0      0      0         0
%i    0    0    0    0      0      0      0      0         0
/*      NGA, ST. LOUIS,MO.                                  
/*   EPHEMERIS COMPUTED FROM  1 DAYS OF DATA
/*   EPOCHA SMOOTHER  
/* CCCCCCCCCCCCCCCCCCCCCCCCCCCCCCCCCCCCCCCCCCCCCCCCCCCCCCCCC
*  2012  6 12 18 50  0.00000000                                                 
P  1  -5609.724267 -14377.718924 -21624.922713    261.056569                    
V  1  26948.670039  -5202.458670  -3496.921595      0.017123                    
P  2 -18043.814068  13690.810087  13585.028262    393.438638                    
V  2 -17552.238714    341.086370 -24396.738559      0.012579                    
P  3   9916.074968 -23512.473752   6364.396739     61.528539                    
V  3   1941.686262   9408.897464  29822.706117      0.049655                    
P  4 -25846.773190   6330.861998   2289.105069    212.295447                    
V  4  -3716.032870  -2674.270013 -30845.639364      0.113830                    
P  5  -6458.612997  15259.688598  20713.204137   -324.700170                    
V  5 -17760.473808 -19564.554316   8990.316400     -0.036885                    
P  6  13891.189861 -19980.709523  10387.579324     18.808500                    
V  6   -597.676641  13555.785311  27496.014513     -0.035283                    
P  7 -19205.839431  -8247.019367  16560.872657     90.038369                    
V  7  20364.545512  -4701.089932  21045.540958      0.036507                    
P  8 -26420.366540  -1111.853586   4864.484937      1.449959                    
V  8   5867.924786  -1562.352607  31398.756828      0.000890                    
P  9    567.650466  15059.401648 -22433.258549    164.605288                    
V  9 -26620.426302   4890.737962   2633.757524      0.024718                    
P 10 -18766.144301  -1876.763692  18601.234209    -41.242507                    
V 10 -13965.721806 -19645.941712 -15463.740868     -0.012593                    
P 11      2.974365 -17969.845628 -19874.737092   -270.963293                    
V 11  23031.897431  -9384.979703   8981.580263     -0.039878                    
P 12   8979.208388  22707.150361 -10703.177965     74.177166                    
V 12  -9806.504093  -9417.197074 -28039.270841      0.020769                    
P 13  -9552.319788 -12627.464129  21161.502161    201.431586                    
V 13  12135.434683 -24304.459613  -9063.661918     -0.024496                    
P 14  16787.314999  -5406.495608 -19630.580127    204.982595                    
V 14  -9133.107006  23642.297525 -14334.422910      0.008164                    
P 15  -2208.694647  25063.876882  -8169.091714    -91.697223                    
V 15  -6393.570600   8870.982079  29180.031864     -0.002120                    
P 16   6960.356716 -14254.446985  21243.558490   -237.973153                    
V 16  17049.163296  20925.840041   8764.418002     -0.011896                    
P 17 -16617.197781   3769.020682 -20132.911857    121.605247                    
V 17   8644.800492 -24573.442522 -11862.310915     -0.029524                    
P 18  20041.947118  16161.791687  -6890.480306    200.222952                    
V 18   3263.179315   9211.405404  29156.911234      0.018057                    
P 19   6279.447569 -24691.071757  -6776.380782   -274.564950                    
V 19   6381.640687  -6557.270283  30407.615840     -0.036784                    
P 20 -13070.808309 -22071.098682  -7177.955425     63.861847                    
V 20   8615.766238   4210.365725 -29211.703850      0.002559                    
P 21  22648.795339   6227.098356  13427.250287   -229.805930                    
V 21 -15458.161995   5102.016205  24050.530110     -0.024393                    
P 22  19439.550274   2672.939058 -17771.366858    144.511103                    
V 22  12997.741930  19092.077953  16784.406639      0.004484                    
P 23  -2996.841741 -21618.274438  14902.048249    196.000589                    
V 23   8867.758035 -16979.066012 -23276.755799     -0.037742                    
P 25  18295.464276  19193.160937   2022.981420     35.300930                    
V 25   -197.325625   3602.669641 -31758.560304      0.005900                    
P 26 -12635.201772  22881.984428   2782.650491   -376.215377                    
V 26   -406.791215  -4960.735013  32233.901590      0.103676                    
P 27  -5293.306586  15130.910995 -20460.381057    397.986259                    
V 27 -27053.803081   4781.374125  10713.757489      0.041220                    
P 28 -19215.563003  -6920.615462 -16545.259663    154.048173                    
V 28 -12096.352692 -18371.690723  20827.083920      0.039765                    
P 29   8016.508699  16179.139235  19557.380875    322.729714                    
V 29 -10512.501891  22352.841725 -14184.107291      0.038903                    
P 30  14502.776149  -6361.325102  20962.117642   -233.596323                    
V 30  19219.342977  19629.263126  -7215.545333     -0.227186                    
P 31  25330.588861  -7156.290536   4616.449935    252.204770                    
V 31   5804.151345   1015.284491 -31324.579363      0.030284                    
P 32  -4640.586473 -22787.490038 -13049.891657   -453.741590                    
V 32  11425.090417  12439.766913 -24908.482533     -0.040055                    
EOF
